[{"OBJECT_NAME":"STARLINK-5492","OBJECT_ID":"2023-013A","EPOCH":"2026-03-09T08:24:29.316384","MEAN_MOTION":15.0254349,"ECCENTRICITY":0.00012437,"INCLINATION":43.0035,"RA_OF_ASC_NODE":302.5875,"ARG_OF_PERICENTER":267.5983,"MEAN_ANOMALY":92.4717,"EPHEMERIS_TYPE":0,"CLASSIFICATION_TYPE":"U","NORAD_CAT_ID":55331,"ELEMENT_SET_NO":999,"REV_AT_EPOCH":17273,"BSTAR":-5.7176585e-5,"MEAN_MOTION_DOT":-9.76e-6,"MEAN_MOTION_DDOT":0},{"OBJECT_NAME":"UNKNOWN","OBJECT_ID":"","EPOCH":"2026-03-09T02:53:57.432768","MEAN_MOTION":15.04852502,"ECCENTRICITY":0.0007482,"INCLINATION":86.6587,"RA_OF_ASC_NODE":118.2618,"ARG_OF_PERICENTER":183.1315,"MEAN_ANOMALY":176.9875,"EPHEMERIS_TYPE":0,"CLASSIFICATION_TYPE":"U","NORAD_CAT_ID":82402,"ELEMENT_SET_NO":999,"REV_AT_EPOCH":46745,"BSTAR":0.00051144,"MEAN_MOTION_DOT":7.26e-5,"MEAN_MOTION_DDOT":0}]
